NORAD_CAT_ID,OBJECT_NAME,OBJECT_TYPE,EPOCH,MEAN_MOTION,ECCENTRICITY,INCLINATION,RA_OF_ASC_NODE,ARG_OF_PERICENTER,MEAN_ANOMALY,BSTAR,MEAN_MOTION_DOT,MEAN_MOTION_DDOT,TLE_LINE0,TLE_LINE1,TLE_LINE2,SEMIMAJOR_AXIS,PERIOD,APOGEE,PERIGEE,DECAYED
52106.0,STARLINK-3670,PAYLOAD,2024-06-03 06:25:36,15.08840151,0.0001388,53.2179,102.047,93.1735,266.9416,7.2911e-05,8.73e-06,0.0,0 STARLINK-3670,1 52106U 22029U   24155.26778925  .00000873  00000-0  72911-4 0  9994,2 52106  53.2179 102.0470 0001388  93.1735 266.9416 15.08840151123367,6917.88,95.438,540.705,538.785,0.0
52106.0,STARLINK-3670,PAYLOAD,2024-06-03 20:44:05,15.08827826,0.0001346,53.2177,99.3701,96.1708,263.9437,0.00026383,3.912e-05,0.0,0 STARLINK-3670,1 52106U 22029U   24155.86395179  .00003912  00000-0  26383-3 0  9994,2 52106  53.2177  99.3701 0001346  96.1708 263.9437 15.08827826123451,6917.918,95.438,540.714,538.851,0.0
52106.0,STARLINK-3670,PAYLOAD,2024-06-04 06:16:23,15.0884437,0.0001153,53.2178,97.5854,89.8273,270.2851,8.3024e-05,1.034e-05,0.0,0 STARLINK-3670,1 52106U 22029U   24156.26138649  .00001034  00000-0  83024-4 0  9995,2 52106  53.2178  97.5854 0001153  89.8273 270.2851 15.08844370123514,6917.867,95.437,540.53,538.934,0.0
52106.0,STARLINK-3670,PAYLOAD,2024-06-04 12:37:55,15.08854087,0.0001294,53.2194,96.3967,95.1271,264.9869,0.0001663,2.361e-05,0.0,0 STARLINK-3670,1 52106U 22029U   24156.52633737  .00002361  00000-0  16630-3 0  9994,2 52106  53.2194  96.3967 0001294  95.1271 264.9869 15.08854087123557,6917.837,95.437,540.597,538.807,0.0
52106.0,STARLINK-3670,PAYLOAD,2024-06-05 02:56:25,15.08828217,0.0001231,53.2189,93.7197,80.2387,279.8745,-4.639e-05,-1.026e-05,0.0,0 STARLINK-3670,1 52106U 22029U   24157.12252272 -.00001026  00000-0 -46390-4 0  9998,2 52106  53.2189  93.7197 0001231  80.2387 279.8745 15.08828217123645,6917.916,95.438,540.633,538.93,0.0
52106.0,STARLINK-3670,PAYLOAD,2024-06-05 12:28:43,15.0884312,0.0001269,53.2201,91.9375,85.8298,274.2839,6.0426e-05,6.74e-06,0.0,0 STARLINK-3670,1 52106U 22029U   24157.51995138  .00000674  00000-0  60426-4 0  9998,2 52106  53.2201  91.9375 0001269  85.8298 274.2839 15.08843120123701,6917.871,95.437,540.614,538.858,0.0
52106.0,STARLINK-3670,PAYLOAD,2024-06-05 20:25:40,15.08834143,0.0001347,53.2204,90.4521,93.4966,266.618,-6.4518e-06,-3.91e-06,0.0,0 STARLINK-3670,1 52106U 22029U   24157.85116061 -.00000391  00000-0 -64518-5 0  9990,2 52106  53.2204  90.4521 0001347  93.4966 266.6180 15.08834143123759,6917.898,95.438,540.695,538.831,0.0
52106.0,STARLINK-3670,PAYLOAD,2024-06-06 12:19:29,15.08858706,0.0001164,53.2196,87.4748,74.9733,285.1387,0.00013594,1.877e-05,0.0,0 STARLINK-3670,1 52106U 22029U   24158.51354029  .00001877  00000-0  13594-3 0  9996,2 52106  53.2196  87.4748 0001164  74.9733 285.1387 15.08858706123856,6917.823,95.436,540.493,538.883,0.0
52106.0,STARLINK-3670,PAYLOAD,2024-06-07 18:31:50,15.08841092,0.0001692,53.218,81.8273,77.7707,282.3474,0.00019354,2.794e-05,0.0,0 STARLINK-3670,1 52106U 22029U   24159.77211673  .00002794  00000-0  19354-3 0  9991,2 52106  53.2180  81.8273 0001692  77.7707 282.3474 15.08841092124046,6917.877,95.437,540.913,538.572,0.0
52106.0,STARLINK-3670,PAYLOAD,2024-06-08 04:04:08,15.08854464,0.0001156,53.2182,80.0412,78.9312,281.181,0.00016818,2.391e-05,0.0,0 STARLINK-3670,1 52106U 22029U   24160.16954650  .00002391  00000-0  16818-3 0  9990,2 52106  53.2182  80.0412 0001156  78.9312 281.1810 15.08854464124109,6917.836,95.437,540.501,538.901,0.0
52106.0,STARLINK-3670,PAYLOAD,2024-06-08 12:01:04,15.08859065,0.0001228,53.219,78.5553,82.763,277.3502,0.00018714,2.693e-05,0.0,0 STARLINK-3670,1 52106U 22029U   24160.50074090  .00002693  00000-0  18714-3 0  9991,2 52106  53.2190  78.5553 0001228  82.7630 277.3502 15.08859065124154,6917.822,95.436,540.537,538.838,0.0
52106.0,STARLINK-3670,PAYLOAD,2024-06-08 18:22:37,15.08848448,0.0003037,53.2176,77.3658,84.1975,275.9364,0.00031012,4.652e-05,0.0,0 STARLINK-3670,1 52106U 22029U   24160.76571554  .00004652  00000-0  31012-3 0  9999,2 52106  53.2176  77.3658 0003037  84.1975 275.9364 15.08848448124196,6917.855,95.437,541.821,537.619,0.0
52106.0,STARLINK-3670,PAYLOAD,2024-06-09 00:44:10,15.0883414,0.0001756,53.218,76.1777,85.6076,274.5117,-0.00010942,-2.029e-05,0.0,0 STARLINK-3670,1 52106U 22029U   24161.03068128 -.00002029  00000-0 -10942-3 0  9995,2 52106  53.2180  76.1777 0001756  85.6076 274.5117 15.08834140124234,6917.898,95.438,540.978,538.549,0.0
52106.0,STARLINK-3670,PAYLOAD,2024-06-09 22:59:34,15.08840347,0.0001584,53.2177,72.0136,95.2276,264.8897,8.6276e-05,1.085e-05,0.0,0 STARLINK-3670,1 52106U 22029U   24161.95803956  .00001085  00000-0  86276-4 0  9995,2 52106  53.2177  72.0136 0001584  95.2276 264.8897 15.08840347124370,6917.879,95.438,540.84,538.649,0.0
52106.0,STARLINK-3670,PAYLOAD,2024-06-10 03:45:43,15.08843946,0.0001458,53.2183,71.1209,94.0591,266.0568,5.5296e-05,5.92e-06,0.0,0 STARLINK-3670,1 52106U 22029U   24162.15675797  .00000592  00000-0  55296-4 0  9998,2 52106  53.2183  71.1209 0001458  94.0591 266.0568 15.08843946124406,6917.868,95.437,540.742,538.725,0.0
52106.0,STARLINK-3670,PAYLOAD,2024-06-10 21:14:58,15.08837451,0.0001483,53.2179,67.8504,98.2541,261.862,0.00025338,3.747e-05,0.0,0 STARLINK-3670,1 52106U 22029U   24162.88540361  .00003747  00000-0  25338-3 0  9994,2 52106  53.2179  67.8504 0001483  98.2541 261.8620 15.08837451124518,6917.888,95.438,540.779,538.727,0.0
52106.0,STARLINK-3670,PAYLOAD,2024-06-10 22:50:22,15.08837365,0.0001463,53.2178,67.5531,97.8805,262.2353,0.00024758,3.654e-05,0.0,0 STARLINK-3670,1 52106U 22029U   24162.95164406  .00003654  00000-0  24758-3 0  9996,2 52106  53.2178  67.5531 0001463  97.8805 262.2353 15.08837365124523,6917.888,95.438,540.766,538.741,0.0
52106.0,STARLINK-3670,PAYLOAD,2024-06-11 03:36:31,15.08842388,0.0001221,53.217,66.6605,87.9162,272.197,0.00023157,3.4e-05,0.0,0 STARLINK-3670,1 52106U 22029U   24163.15036161  .00003400  00000-0  23157-3 0  9996,2 52106  53.2170  66.6605 0001221  87.9162 272.1970 15.08842388124554,6917.873,95.437,540.583,538.893,0.0
52106.0,STARLINK-3670,PAYLOAD,2024-06-12 00:16:32,15.08837631,0.0001265,53.2168,62.7928,83.9363,276.1774,7.8921e-05,9.68e-06,0.0,0 STARLINK-3670,1 52106U 22029U   24164.01148501  .00000968  00000-0  78921-4 0  9990,2 52106  53.2168  62.7928 0001265  83.9363 276.1774 15.08837631124688,6917.888,95.438,540.628,538.878,0.0
52106.0,STARLINK-3670,PAYLOAD,2024-06-12 09:48:50,15.08845433,0.0001326,53.2179,61.0097,91.8945,268.2199,0.00015744,2.219e-05,0.0,0 STARLINK-3670,1 52106U 22029U   24164.40892046  .00002219  00000-0  15744-3 0  9997,2 52106  53.2179  61.0097 0001326  91.8945 268.2199 15.08845433124740,6917.864,95.437,540.646,538.811,0.0
52106.0,STARLINK-3670,PAYLOAD,2024-06-12 20:56:33,15.08830257,0.0001483,53.2169,58.9303,97.851,262.265,-8.931e-05,-1.709e-05,0.0,0 STARLINK-3670,1 52106U 22029U   24164.87260930 -.00001709  00000-0 -89310-4 0  9995,2 52106  53.2169  58.9303 0001483  97.8510 262.2650 15.08830257124814,6917.91,95.438,540.801,538.749,0.0
52106.0,STARLINK-3670,PAYLOAD,2024-06-12 22:31:56,15.08831967,0.0001767,53.2179,58.6396,114.0114,246.1063,-4.8965e-05,-1.067e-05,0.0,0 STARLINK-3670,1 52106U 22029U   24164.93884974 -.00001067  00000-0 -48965-4 0  9990,2 52106  53.2179  58.6396 0001767 114.0114 246.1063 15.08831967124820,6917.905,95.438,540.992,538.548,0.0
52106.0,STARLINK-3670,PAYLOAD,2024-06-13 09:39:37,15.08844898,0.0001438,53.2182,56.5528,90.6006,269.5151,0.00010062,1.314e-05,0.0,0 STARLINK-3670,1 52106U 22029U   24165.40252287  .00001314  00000-0  10062-3 0  9998,2 52106  53.2182  56.5528 0001438  90.6006 269.5151 15.08844898124893,6917.865,95.437,540.725,538.736,0.0
52106.0,STARLINK-3670,PAYLOAD,2024-06-13 22:22:43,15.08835286,0.0001376,53.2184,54.1751,96.4821,263.6328,0.00010258,1.345e-05,0.0,0 STARLINK-3670,1 52106U 22029U   24165.93245156  .00001345  00000-0  10258-3 0  9994,2 52106  53.2184  54.1751 0001376  96.4821 263.6328 15.08835286124978,6917.895,95.438,540.712,538.808,0.0
52106.0,STARLINK-3670,PAYLOAD,2024-06-14 09:30:24,15.08853596,0.0001557,53.2199,52.0919,85.5352,274.5818,0.00018234,2.616e-05,0.0,0 STARLINK-3670,1 52106U 22029U   24166.39611783  .00002616  00000-0  18234-3 0  9992,2 52106  53.2199  52.0919 0001557  85.5352 274.5818 15.08853596125044,6917.839,95.437,540.781,538.627,0.0
52106.0,STARLINK-3670,PAYLOAD,2024-06-14 22:13:30,15.08839788,0.0001713,53.2194,49.7123,98.4315,261.6872,-7.1505e-05,-1.426e-05,0.0,0 STARLINK-3670,1 52106U 22029U   24166.92604710 -.00001426  00000-0 -71505-4 0  9994,2 52106  53.2194  49.7123 0001713  98.4315 261.6872 15.08839788125128,6917.881,95.438,540.931,538.561,0.0
52106.0,STARLINK-3670,PAYLOAD,2024-06-15 09:21:11,15.08852573,0.0001496,53.2191,47.6326,82.0837,278.0325,0.00013033,1.788e-05,0.0,0 STARLINK-3670,1 52106U 22029U   24167.38971931  .00001788  00000-0  13033-3 0  9997,2 52106  53.2191  47.6326 0001496  82.0837 278.0325 15.08852573125192,6917.842,95.437,540.742,538.672,0.0
52106.0,STARLINK-3670,PAYLOAD,2024-06-15 22:04:17,15.08842097,0.0001232,53.2169,45.2519,81.5274,278.5858,-8.8464e-06,-4.29e-06,0.0,0 STARLINK-3670,1 52106U 22029U   24167.91964892 -.00000429  00000-0 -88464-5 0  9999,2 52106  53.2169  45.2519 0001232  81.5274 278.5858 15.08842097125277,6917.874,95.437,540.591,538.887,0.0
52106.0,STARLINK-3670,PAYLOAD,2024-06-16 09:11:58,15.08853062,0.0001375,53.2169,43.1689,86.3015,273.8134,0.00012713,1.737e-05,0.0,0 STARLINK-3670,1 52106U 22029U   24168.38331765  .00001737  00000-0  12713-3 0  9991,2 52106  53.2169  43.1689 0001375  86.3015 273.8134 15.08853062125343,6917.84,95.437,540.657,538.754,0.0
52106.0,STARLINK-3670,PAYLOAD,2024-06-16 21:55:04,15.08834738,0.0001301,53.2178,40.7921,79.8239,280.29,5.5746e-05,5.99e-06,0.0,0 STARLINK-3670,1 52106U 22029U   24168.91324943  .00000599  00000-0  55746-4 0  9999,2 52106  53.2178  40.7921 0001301  79.8239 280.2900 15.08834738125420,6917.896,95.438,540.661,538.861,0.0
